OBJECT_NAME,OBJECT_ID,EPOCH,MEAN_MOTION,ECCENTRICITY,INCLINATION,RA_OF_ASC_NODE,ARG_OF_PERICENTER,MEAN_ANOMALY,EPHEMERIS_TYPE,CLASSIFICATION_TYPE,NORAD_CAT_ID,ELEMENT_SET_NO,REV_AT_EPOCH,BSTAR,MEAN_MOTION_DOT,MEAN_MOTION_DDOT
STARLINK-36549,2026-012T,2026-06-13T04:46:03.289152,15.27597620,.00020808,43.0099,134.5686,276.2912,83.7703,0,U,67510,999,2237,.58035498E-3,.15751E-3,0
STARLINK-36540,2026-012U,2026-06-13T04:31:28.641216,15.27593240,.00020869,43.0020,135.3963,274.2431,85.8182,0,U,67511,999,2236,.7154494E-3,.19486E-3,0
STARLINK-36538,2026-012V,2026-06-13T15:23:09.718080,15.27592939,.00020947,43.0008,132.7519,266.6307,93.4305,0,U,67512,999,2243,.64133329E-3,.17435E-3,0
STARLINK-36531,2026-012W,2026-06-13T15:08:20.720832,15.27611794,.00024826,42.9872,132.6779,259.4017,100.6555,0,U,67513,999,2243,.97816492E-3,.2678E-3,0
STARLINK-36530,2026-012X,2026-06-13T15:02:48.072192,15.27598935,.00029861,43.0070,132.6508,266.1173,93.9337,0,U,67514,999,2243,.89047707E-3,.24338E-3,0
STARLINK-36543,2026-012Y,2026-06-13T14:57:14.114592,15.27615727,.00028342,43.0041,132.6219,269.5924,90.4603,0,U,67515,999,2243,.52470968E-3,.14221E-3,0
STARLINK-36537,2026-012Z,2026-06-13T14:42:26.860032,15.27605519,.0001938,42.9972,132.5325,270.0701,89.9928,0,U,67516,999,2243,.83423E-3,.22783E-3,0
STARLINK-36544,2026-012AA,2026-06-13T14:51:41.626656,15.27609087,.00027113,42.9933,132.5852,268.1424,91.9117,0,U,67517,999,2243,.75247403E-3,.20522E-3,0
STARLINK-36412,2026-012AB,2026-06-13T14:25:48.716256,15.27622148,.0002327,42.9891,132.4375,281.1748,78.8842,0,U,67518,999,2243,.92906E-3,.25426E-3,0
STARLINK-36415,2026-012AC,2026-06-13T04:55:20.296128,15.27564716,.00035865,42.9854,134.6134,283.6810,76.3642,0,U,67519,999,2237,.79036265E-3,.21543E-3,0
STARLINK-36547,2026-012AD,2026-06-13T14:31:19.515072,15.27600789,.0003484,42.9899,132.4701,276.6845,83.3610,0,U,67520,999,2243,.42315E-3,.11408E-3,0
STARLINK-36444,2026-012AE,2026-06-13T05:11:57.976800,15.27594781,.00007623,43.0004,134.7186,222.6246,137.4547,0,U,67521,999,2237,.56032116E-3,.15195E-3,0
STARLINK-36587,2026-014A,2026-06-13T15:47:31.002144,15.33442011,.00018436,97.2861,51.4708,85.6167,274.5287,0,U,67532,999,2349,.78504211E-3,.25352E-3,0
STARLINK-36417,2026-014B,2026-06-13T22:58:12.016128,15.33446091,.00012699,97.2869,51.6743,87.0188,273.1200,0,U,67533,999,2353,.38547368E-3,.1239E-3,0
STARLINK-36576,2026-014C,2026-06-13T22:42:32.421312,15.33438532,.00013486,97.2888,51.6924,90.7970,269.3427,0,U,67534,999,2353,.58838201E-3,.18964E-3,0
STARLINK-36574,2026-014D,2026-06-13T22:15:07.780896,15.33462374,.00015341,97.2871,51.7150,95.1709,264.9709,0,U,67535,999,2353,.57164007E-3,.18435E-3,0
STARLINK-36572,2026-014E,2026-06-13T22:46:28.849728,15.33409207,.00016107,97.2869,51.6879,90.1705,269.9723,0,U,67536,999,2353,.89027669E-3,.28744E-3,0
STARLINK-36561,2026-014F,2026-06-13T22:34:42.591072,15.33438643,.00013846,97.2868,51.6948,85.7486,274.3915,0,U,67537,999,2353,.55838426E-3,.17991E-3,0
STARLINK-36397,2026-014G,2026-06-13T22:11:11.233248,15.33426678,.00012969,97.2885,51.7183,90.6726,269.4665,0,U,67538,999,2353,.39353656E-3,.12644E-3,0
STARLINK-36573,2026-014H,2026-06-13T22:30:47.556288,15.33445358,.00013819,97.2870,51.7028,88.5516,271.5885,0,U,67539,999,2353,.58057537E-3,.18715E-3,0
STARLINK-36585,2026-014J,2026-06-13T22:22:57.861696,15.33439711,.00015914,97.2862,51.7077,87.0878,273.0547,0,U,67540,999,2353,.62643359E-3,.202E-3,0
STARLINK-36579,2026-014K,2026-06-13T23:09:56.831040,15.33441457,.00012882,97.2870,51.8176,98.6568,261.4821,0,U,67541,999,2354,.64648941E-3,.20851E-3,0
STARLINK-35934,2026-014L,2026-06-13T15:27:56.344032,15.33447751,.00018313,97.2860,51.4910,88.6613,271.4839,0,U,67542,999,2348,.9290015E-3,.30039E-3,0
STARLINK-36581,2026-014M,2026-06-13T16:11:00.574080,15.33453995,.00025897,97.2862,51.4497,117.6357,242.5149,0,U,67543,999,2349,.71729104E-3,.23161E-3,0
STARLINK-36565,2026-014N,2026-06-13T22:38:37.498848,15.33449217,.00020847,97.2882,51.6949,90.6227,269.5254,0,U,67544,999,2353,.78894543E-3,.25485E-3,0
STARLINK-36583,2026-014P,2026-06-13T21:59:28.291488,15.33441893,.00016634,97.2867,51.7316,82.1901,277.9531,0,U,67545,999,2353,.60975889E-3,.1966E-3,0
STARLINK-36580,2026-014Q,2026-06-13T22:50:22.089984,15.33446025,.00012601,97.2889,51.6851,97.3497,262.7889,0,U,67546,999,2353,.45722827E-3,.14715E-3,0
STARLINK-36584,2026-014R,2026-06-13T15:35:46.182912,15.33441592,.00016527,97.2863,51.4827,99.6369,260.5060,0,U,67547,999,2349,.74771628E-3,.24139E-3,0
STARLINK-36586,2026-014S,2026-06-13T15:31:51.178368,15.33448793,.00017788,97.2863,51.4880,86.0510,274.0936,0,U,67548,999,2349,.9009208E-3,.29126E-3,0
STARLINK-36564,2026-014T,2026-06-13T22:54:17.062560,15.33443256,.00013004,97.2885,51.6807,87.3892,272.7499,0,U,67549,999,2347,.54622212E-3,.17599E-3,0
