STARLINK-36549          
1 67510U 26012T   26164.19864918  .00015751  00000+0  58035-3 0  9997
2 67510  43.0099 134.5686 0002080 276.2912  83.7703 15.27597620 22374
STARLINK-36540          
1 67511U 26012U   26164.18852594  .00019486  00000+0  71545-3 0  9994
2 67511  43.0020 135.3963 0002086 274.2431  85.8182 15.27593240 22363
STARLINK-36538          
1 67512U 26012V   26164.64108470  .00017435  00000+0  64133-3 0  9990
2 67512  43.0008 132.7519 0002094 266.6307  93.4305 15.27592939 22438
STARLINK-36531          
1 67513U 26012W   26164.63079538  .00026780  00000+0  97816-3 0  9999
2 67513  42.9872 132.6779 0002482 259.4017 100.6555 15.27611794 22431
STARLINK-36530          
1 67514U 26012X   26164.62694528  .00024338  00000+0  89048-3 0  9996
2 67514  43.0070 132.6508 0002986 266.1173  93.9337 15.27598935 22434
STARLINK-36543          
1 67515U 26012Y   26164.62308003  .00014221  00000+0  52471-3 0  9997
2 67515  43.0041 132.6219 0002834 269.5924  90.4603 15.27615727 22432
STARLINK-36537          
1 67516U 26012Z   26164.61281088  .00022783  00000+0  83423-3 0  9993
2 67516  42.9972 132.5325 0001938 270.0701  89.9928 15.27605519 22436
STARLINK-36544          
1 67517U 26012AA  26164.61923179  .00020522  00000+0  75247-3 0  9992
2 67517  42.9933 132.5852 0002711 268.1424  91.9117 15.27609087 22436
STARLINK-36412          
1 67518U 26012AB  26164.60125829  .00025426  00000+0  92906-3 0  9997
2 67518  42.9891 132.4375 0002327 281.1748  78.8842 15.27622148 22438
STARLINK-36415          
1 67519U 26012AC  26164.20509602  .00021543  00000+0  79036-3 0  9994
2 67519  42.9854 134.6134 0003586 283.6810  76.3642 15.27564716 22370
STARLINK-36547          
1 67520U 26012AD  26164.60508698  .00011408  00000+0  42315-3 0  9993
2 67520  42.9899 132.4701 0003484 276.6845  83.3610 15.27600789 22435
STARLINK-36444          
1 67521U 26012AE  26164.21664325  .00015195  00000+0  56032-3 0  9999
2 67521  43.0004 134.7186 0000762 222.6246 137.4547 15.27594781 22377
STARLINK-36587          
1 67532U 26014A   26164.65799771  .00025352  00000+0  78504-3 0  9999
2 67532  97.2861  51.4708 0001843  85.6167 274.5287 15.33442011 23499
STARLINK-36417          
1 67533U 26014B   26164.95708352  .00012390  00000+0  38547-3 0  9999
2 67533  97.2869  51.6743 0001269  87.0188 273.1200 15.33446091 23537
STARLINK-36576          
1 67534U 26014C   26164.94620858  .00018964  00000+0  58838-3 0  9991
2 67534  97.2888  51.6924 0001348  90.7970 269.3427 15.33438532 23537
STARLINK-36574          
1 67535U 26014D   26164.92717339  .00018435  00000+0  57164-3 0  9995
2 67535  97.2871  51.7150 0001534  95.1709 264.9709 15.33462374 23533
STARLINK-36572          
1 67536U 26014E   26164.94894502  .00028744  00000+0  89028-3 0  9994
2 67536  97.2869  51.6879 0001610  90.1705 269.9723 15.33409207 23531
STARLINK-36561          
1 67537U 26014F   26164.94077073  .00017991  00000+0  55838-3 0  9995
2 67537  97.2868  51.6948 0001384  85.7486 274.3915 15.33438643 23531
STARLINK-36397          
1 67538U 26014G   26164.92443557  .00012644  00000+0  39354-3 0  9993
2 67538  97.2885  51.7183 0001296  90.6726 269.4665 15.33426678 23539
STARLINK-36573          
1 67539U 26014H   26164.93805042  .00018715  00000+0  58058-3 0  9993
2 67539  97.2870  51.7028 0001381  88.5516 271.5885 15.33445358 23534
STARLINK-36585          
1 67540U 26014J   26164.93261414  .00020200  00000+0  62643-3 0  9991
2 67540  97.2862  51.7077 0001591  87.0878 273.0547 15.33439711 23537
STARLINK-36579          
1 67541U 26014K   26164.96524110  .00020851  00000+0  64649-3 0  9990
2 67541  97.2870  51.8176 0001288  98.6568 261.4821 15.33441457 23542
STARLINK-35934          
1 67542U 26014L   26164.64440213  .00030039  00000+0  92900-3 0  9997
2 67542  97.2860  51.4910 0001831  88.6613 271.4839 15.33447751 23484
STARLINK-36581          
1 67543U 26014M   26164.67431220  .00023161  00000+0  71729-3 0  9993
2 67543  97.2862  51.4497 0002589 117.6357 242.5149 15.33453995 23497
STARLINK-36565          
1 67544U 26014N   26164.94348957  .00025485  00000+0  78895-3 0  9990
2 67544  97.2882  51.6949 0002084  90.6227 269.5254 15.33449217 23533
STARLINK-36583          
1 67545U 26014P   26164.91629967  .00019660  00000+0  60976-3 0  9990
2 67545  97.2867  51.7316 0001663  82.1901 277.9531 15.33441893 23536
STARLINK-36580          
1 67546U 26014Q   26164.95164456  .00014715  00000+0  45723-3 0  9991
2 67546  97.2889  51.6851 0001260  97.3497 262.7889 15.33446025 23535
STARLINK-36584          
1 67547U 26014R   26164.64984008  .00024139  00000+0  74772-3 0  9998
2 67547  97.2863  51.4827 0001652  99.6369 260.5060 15.33441592 23493
STARLINK-36586          
1 67548U 26014S   26164.64712012  .00029126  00000+0  90092-3 0  9997
2 67548  97.2863  51.4880 0001778  86.0510 274.0936 15.33448793 23492
STARLINK-36564          
1 67549U 26014T   26164.95436415  .00017599  00000+0  54622-3 0  9992
2 67549  97.2885  51.6807 0001300  87.3892 272.7499 15.33443256 23472
